name,owner,phone,website,email,logo,street,city,zip_code
well come FIT AG,Pascal Brunner,+41 52 721 36 96,www.wellcomefit.ch,info@wellcomefit.ch,https://admin.fitness-classification.ch//storage/media/327/624c232f71f64.jpg,Walzmühlestrasse 50,Frauenfeld,8500
THE GYM Baregg,Reto Maissen,+41 56 493 37 63,www.the-gym.ch,baregg@the-gym.ch,https://admin.fitness-classification.ch//storage/media/233/624c18ef5e355.png,Zelgweg 11,Baden-Dättwil,5405
Just Fit AG,Mike Ruhland,+41 62 577 70 71,www.justfit.ch,info@justfit.ch,https://admin.fitness-classification.ch//storage/media/240/624c19c7bbab6.png,Niederlenzer Kirchweg 5,Lenzburg,5600
VITASPORT TRAINING,Roland Zehnder,+41 56 441 72 71,www.vitasport.ch,zehnder@vitasport.ch,https://admin.fitness-classification.ch//storage/media/222/624c17d6903f2.jpg,Badstrasse 50,Brugg AG,5200
Fitlife Training GmbH,Peter Hänggi,+41 56 611 13 10,www.fitlife-training.ch,info@fitlife-training.ch,,Dottikerstrasse 7,Anglikon,5611
Medizinisches Training & Physiotherapie aarau West,Sandra Kehrli,+41 62 723 30 18,www.fitnessaarauwest.ch,info@fitnessaarauwest.ch,,Industriestrasse 12A,Oberentfelden,5036
ASS Fit and Well,Peter Zavadil,+41 62 827 31 81,www.ass-fitandwell.ch,mail@ass-fitandwell.ch,https://admin.fitness-classification.ch//storage/media/412/62725da3160c1.jpg,Rainstrasse 2,Rombach,5022
Gesundheitscenter Bellvida,Valerio Carusone,+41 62 552 00 01,www.bellvida.ch,info@bellvida.ch,,Bernstrasse-Ost 50,Suhr,5034
Physiotherapie Wiebke Schubien GmbH,,+41 62 823 81 67,www.physiotherapie-schubien.ch,info@physiotherapie-schubien.ch,,Rohrerstrasse 78,Aarau,5000
FitPoint,,+41 71 929 30 20,fitpoint.ch,info@fitpoint.ch,,Ringstrasse 31,Wil SG,9500
Medical Fitness Rheinfelden,Tobias Wehrle,+41 61 836 51 51,www.reha-rheinfelden.ch,mtt@reha-rhf.ch,https://admin.fitness-classification.ch//storage/media/185/624b20d591feb.jpg,Salinenstrasse 98,Rheinfelden,4310
S4 Fitnesscenter,Roland Fuchs,+41 33 530 01 66,www.s4sports.ch,info@s4sports.ch,,Mittelwegs 11,Wilderswil,3812
GYYM Health & Fitness AG,Alessandro Biassoni Schmitz,+41 61 633 20 60,www.gyym.ch,info@gyym.ch,,Hochbergerstrasse 70,Basel,4057
Lady Fitness Factory,,+41 62 961 97 47,www.fitnessfactory.ch/www.ladyfitnessfactory.ch,info@baufactory.ch,,Bernstrasse 22,Herzogenbuchsee,3360
Fitnesscenter Body Gym,Cristina Famiglietti,+41 52 720 81 88,https://www.body-gym.ch/,info@body-gym.ch,,Langfeldstrasse 60,Frauenfeld,8500
Body Move Allschwil,,+41 61 577 30 30,www.body-move.ch,allschwil@body-move.ch,,Paradiesrain 14,Allschwil,4123
Body Move Aesch,,+41 61 599 30 31,www.body-move.ch,aesch@body-move.ch,https://admin.fitness-classification.ch//storage/media/170/624b1f6e4941d.jpg,Nordring 2,Aesch,4147
Impuls Fitnesscenter,,+41 62 896 03 50,www.implus-fit.ch,info@impuls-fit.ch,,Hintermättlistrasse 3,Mägenwil,5506
med. Rücken-Center,Yvonne Keller,+41 44 211 60 80,rueckencenter.com,info@rueckencenter.com,https://admin.fitness-classification.ch//storage/media/276/624c1dd3b7ff1.png,Nüschelerstrasse 45,Zürich,8001
Fitness Hell,Sascha Hell,+41 61 781 29 60,wwww.wisdom-health.ch,info@wisdom-health.ch,,Alice Vogt-Strasse 2,Breitenbach,4226
Physio Aktiv GmbH,,+41 41 760 50 03,www.physio-aktiv.ch,info@physio-aktiv.ch,,Bahnhofpark 2,Baar,6340
Gesundheitszentrum Promotion AG,Ralph Castelberg,+41 31 370 80 92,www.gesundheitszentrum-promotion.ch,physio@gesundheitszentrum-promotion.ch,https://admin.fitness-classification.ch//storage/media/84/624b10a4cc407.png,Chutzenstrasse 24,Bern,3007
Dedication Gym AG,,+41 34 445 60 60,www.dedicationgym.ch,info@dedicationgym.ch,https://admin.fitness-classification.ch//storage/media/118/624b1770e1338.png,Eystrasse 62,Kirchberg BE,3422
Chili Health Hombrechtikon,Marcus Lang,+41 55 525 70 30,www.chili-health.ch,hombrechtikon@chili-health.ch,https://admin.fitness-classification.ch//storage/media/346/624c24e668350.jpg,Im Zentrum 10,Hombrechtikon,8634
ATHENA FITNESSPARK,Marcel Pesse,+41 32 623 70 55,athena-fitnesspark.ch,info@athena-fitnesspark.ch,,Hans-Huber-Strasse 36,Solothurn,4502
Athena Fitnesspark,Marc Zanetti,+41 32 675 42 41,www.athena-fitnesspark.ch,recherswil@athena-fitnesspark.ch,,Steinacker 13a,Recherswil,4565
Athletic Fitness AG,Pascal Baschung,+41 26 670 54 20,www.athletic.ch,info@athletic.ch,https://admin.fitness-classification.ch//storage/media/100/624b13e6d4544.jpg,Freiburgstrasse 23,Murten,3280
Fitness Connection Sursee,David Kuoni,+41 41 921 77 19,sursee.fitnessconnection.ch,info@fitnessconnectionsursee.ch,,Sandgruebestrasse 4,Sursee,6210
Zenith Gesundheitszentrum Physiotherapie GmbH,Thomas Tholey,+41 62 897 08 80,www.zenith-gesundheit.ch,info@zenith-gesundheit.ch,https://admin.fitness-classification.ch//storage/media/237/624c1972ea07a.jpg,Hauptstrasse 7c,Hunzenschwil,5502
The White Rabbit - Health Club & Personal Training,Georg Bielmann,+41 31 351 50 52,www.thewhiterabbit.ch,carrots@thewhiterabbit.ch,,Thunstrasse 7,Bern,3005
Tom's Training,Thomas Nacht,+41 31 761 33 60,www.toms-training.ch,info@toms-training.ch,https://admin.fitness-classification.ch//storage/media/105/624b14d840a9b.jpg,Bernstrasse 41,Jegenstorf,3303
Fit Inform GmbH,Ursula Christener,+41 55 525 80 30,www.fitinform.ch,info@fitinform.ch,,Rötlistrasse 34,Benken SG,8717
Fitnesscenter Turgi,Tobias Schumann,+41 56 223 37 27,www.fitnesscenter-turgi.ch,info@fitnesscenter-turgi.ch,,Landstrasse 44,Turgi,5300
Vitafit Training,Tarzisi Arpagaus,+41 81 925 23 43,www.vitafit.ch,info@vitafit.ch,,Via Santeri 9a,Ilanz,7130
SYNERGY Fitness + Physio,,+41 31 771 30 20,www.synergy-fitness.ch,info@phys-io.ch,,Burgdorfstrasse 36,Oberdiessbach,3672
David Gym 47,,+41 43 311 20 50,www.davidgym.ch,info47@davidgym.ch,https://admin.fitness-classification.ch//storage/media/280/624c1e246fcb3.jpg,Albisriederstrasse 199a,Zürich,8047
Extrem Fitness,,079 861 72 00,www.extrem-fitness-jura.ch,p.scari@bluewin.ch,https://admin.fitness-classification.ch//storage/media/403/624c29c20638d.jpg,St-Randoald 32,Delémont,2800
Gesundheitszentrum Liestal,Johannes Scherzinger,+41 61 921 70 45,www.gesundheitszentrum-liestal.ch,info@gesundheitszentrum-liestal.ch,https://admin.fitness-classification.ch//storage/media/493/63e23cf576253.png,Zeughausgasse 41,Liestal,4410
Fabelhaftfitness für Frauen GmbH,Jean-Michel Wolownik,+41 61 423 00 62,www.fabehaft-fitness.ch,hello@fabelhaft-fitness.ch,,Paradiesstrasse 2,Binningen,4102
PHYSIOFIT SCHÖNBERG,Daniel Schoonbroodt,+41 33 251 30 07,www.physiofit-schoenberg.ch,physiofit@schoenberg.ch,,Sigriswilstrasse 3,Gunten,3654
Diis Fitness AG,Patrizia Vogel,+41 43 534 09 16,www.diisfitness.ch,info@diisfitness.ch,https://admin.fitness-classification.ch//storage/media/360/624c2624cb809.jpg,Grossmattstrasse 9,Urdorf,8902
MedAction,Andreas Neeser,+41 55 410 72 20,www.medaction.ch,pfaeffikon@medaction.ch,https://admin.fitness-classification.ch//storage/media/355/624c25bfa7a4a.png,Huobstrasse 5,Pfäffikon SZ,8808
Fitness Come On,,+41 21 781 30 80,www.comeonfitness.ch,info@comeonfitness.ch,,Rue de la Mortigue 1,Forel (Lavaux),1072
Anatis Fitness Club,,+41 21 732 11 33,anatis.ch,patrice.malard@bluewin.ch,,Ch. ds Dailles 16,Cugy VD,1053
Aemme Fit GmbH,Roman Blaser,+41 34 461 72 00,aemmefit.ch,luetzelflueh@aemmefit.ch,,Bahnhofstrasse 19 - 21,Lützelflüh-Goldb,3432
Blue Fit Club Sarl,Pascal Mazzuchetti,+41 24 445 27 57,www.bluefitclub.ch,mazzuchettip@hotmail.com,,Centre en Charmand 41c,Montagny-Yverdon,1442
Daily-Fit 365 GmbH,,+41 71 545 20 90,www.daily-fit.ch,serviceteam@daily-fit.ch,,Bahnhofstrasse 54a,Romanshorn,8590
Fitnessbetriebe Schönthal AG,,+41 61 901 72 82,fitin-fitness.ch,info@fitin-fitness.ch,,Hammerstrasse 51,Liestal,4410
Harmony Eaux-Vives,Maxime Tognon,+41 22 800 00 01,www.harmony.ch,eaux-vives@harmony.ch,,Rue du Nant 10,Genève,1207
Harmony Veyrier,Elodie Rimonteil,+41 22 752 54 54,www.harmony.ch,veyrier@harmony.ch,,Avenue du Grand Salève 4,Veyrier,1255
L!FE Swiss Health Club Rheinfelden,Anne-Kathrin Wilm,+41 61 813 38 69,www.life-swiss-healthclub.ch,info@life-swiss-healthclub.ch,https://admin.fitness-classification.ch//storage/media/189/624b210cde707.png,Baslerstrasse 8,Rheinfelden,4310
Physio- und Trainingstherapie Schüpfen,,+41 31 879 06 77,www.pt-s.ch,info@pt-s.ch,,Dorfstrasse 1,Schüpfen,3054
Van der Merwe Center,Lea Van der Merwe,+41 61 487 98 98,www.vandermerwe.ch,info@vandermerwe.ch,https://admin.fitness-classification.ch//storage/media/148/624b1b9380f19.png,Gewerbestrasse 30,Allschwil,4123
SCHNEIDER Gesundheit GmbH,Andrea Balde,+41 31 741 15 51,www.schneider-gesundheit.ch,info@schneider-gesundheit.ch,https://admin.fitness-classification.ch//storage/media/430/62b98acb1febc.jpg,Bernstrasse 34,Flamatt,3175
Gesundheitspark Thalwil AG,,+41 43 388 41 41,www.gesundheitspark.ch,info@gesundheitspark.ch,https://admin.fitness-classification.ch//storage/media/5/622b4e6da7d92.png,Zürcherstrasse 65,Thalwil,8800
Studio für ganzheitliche Gesundheit & Fitness,Cori Wiederkehr,,www.ffwo.ch,info@ffwo.ch,https://admin.fitness-classification.ch//storage/media/201/624c155710dd9.png,Solothurnerstrasse 72,Olten,4600
Alp'Sports Thérapies SA,,+41 27 776 15 94,www.ast-sa.ch,info@ast-sa.ch,https://admin.fitness-classification.ch//storage/media/397/624c296ef0e36.png,Route de Corberaye 6c,Le Châble VS,1934
Sana Center,Javier Cancela,+41 32 322 83 30,www.sanacenter.ch,info@sanacenter.ch,,rue du Marché-Neuf 29,Biel/Bienne,2503
Budget Fitness,Anton Obrist,+41 62 871 55 66,www.vitamare-fitness.ch,toeni@vitamare-fitness.ch,https://admin.fitness-classification.ch//storage/media/217/624c175512f65.png,Juraweg 13,Frick,5070
Sportarena - Fitness in Riehen,Christian Gugler,+41 61 641 50 50,www.sportarena.ch,fitness@sportarena.ch,https://admin.fitness-classification.ch//storage/media/152/624b1c3772c79.jpg,Baselstrasse 60,Riehen,4125
4 Balance medizinisches Trainingszentrum,Johannes Weitz,+49 61 461 28 27,www.4balance.ch,info@4balance.ch,https://admin.fitness-classification.ch//storage/media/161/624b1d781b5d0.jpg,Neue Bahnhofstrasse 160,Muttenz,4132
4-Training Fitness GmbH,,+41 32 652 05 40,www.4-trainingfitness.ch,fitness@4-training.ch,https://admin.fitness-classification.ch//storage/media/402/624c29b2421e9.jpg,Sportstrasse 44,Grenchen,2540
E. Bezemer Physio Training Center GmbH,Sandra Bezemer,+41 81 723 51 11,www.bezemer.ch,info@bezemer.ch,,Grossfeldstrasse 5,Mels,8887
Harmony Gland,Margaux Fournier,+41 22 950 44 40,www.harmony.ch,gland@harmony.ch,,Route de Suisse 35,Gland,1196
inicio fitness Fit@Roche Basel,Jürg Bühler,+41 61 688 34 34,www.iniciofitness.ch,basel@iniciofitness.ch,https://admin.fitness-classification.ch//storage/media/144/624b1af324228.JPG,Grenzacherstrasse 124,Basel,4070
inicio fitness Fit@Roche Kaiseraugst,,+41 61 687 48 48,www.iniciofitness.ch,Kaiseraugst@iniciofitness.ch,https://admin.fitness-classification.ch//storage/media/180/624b20685f3ce.JPG,Wurmisweg,Kaiseraugst,4303
Med. Trainingstherapie Bethesda Spital AG,Claudia Picenoni,+41 61 315 23 64,www.bethesda-spital.ch,physiotherapie@bethesda-spital.ch,,Gellertstrasse 144,Basel,4052
Physic Wellness Club Delémont SA,Romain Brucker,+41 32 423 13 13,www.physicclub.ch,romain@physicclub.ch,https://admin.fitness-classification.ch//storage/media/72/6247190e38e21.jpg,Moulins 28,Delémont,2800
well come Fit SG AG,Jacqueline Würmli,+41 71 920 10 10,www.wellcomefit.ch,info@wellcomefit.ch,,Rittmeyerstrasse 15,St. Gallen,9014
Fitness- und Gesundheitscenter proFIT,,+41 62 771 57 55,profit-fitness.ch,info@profit-fitness.ch,https://admin.fitness-classification.ch//storage/media/447/631868f552856.jpg,Hauptstrasse 35,Menziken,5737
Fitness Energy,,+41 32 941 33 66,www.fitness-energy.ch,admin@fitness-energy.ch,,Rue des Noyes 1,St-Imier,2610
egymtraining.ch Muri,Niki Schönbächler,,www.egymtraining.ch,training@egymtraining24.ch,,Zürcherstrasse 34,Muri AG,5630
Aktiv Physio Hinwil,Markus Angst,+41 44 937 22 62,www.aktivphysio.ch,hinwil@aktivphysio.ch,https://admin.fitness-classification.ch//storage/media/308/624c2102060bb.png,Untere Bahnhofstrasse 25,Hinwil,8340
FEEL IT-FITNESS GmbH,,+41 31 505 11 95,www.feelit-fitness.ch,info@feelit-fitness.ch,,Bahnstrasse 2,Laupen BE,3177
L!FE Swiss Health Club Arlesheim,Anne-Kathrin Wilm,+41 61 272 69 69,www.life-swiss-healthclub.ch,info@life-swiss-healthclub.ch,https://admin.fitness-classification.ch//storage/media/169/624b1f3604f05.png,Altenmatteweg 2,Arlesheim,4144
Fitness Zentrum Wetzikon,Markus Egli,+41 44 930 22 44,www.fzw.ch,box@fzw.ch,https://admin.fitness-classification.ch//storage/media/342/624c24a4d791a.jpg,Breitistrasse 21,Wetzikon ZH,8623
World of Bonnie,,+41 44 912 22 00,www.bonnie.ch,fit@bonnie.ch,https://admin.fitness-classification.ch//storage/media/347/624c2513dac23.jpg,Dorfstrasse 9,Küsnacht ZH,8700
fit xperience AG,Judy Shepherd,+41 43 244 55 50,www.fit-x.ch,info@fit-x.ch,https://admin.fitness-classification.ch//storage/media/286/624c1ea7af055.gif,Gewerbestrasse 13,Egg b. Zürich,8132
bxa-Fitnesscenter,Anna Berta,+41 44 836 77 77,www.bxa.io,info@bxa.io,,Grindelstrasse 20,Bassersdorf,8303
David Gym Zürich West AG,Kathi Fleig,+41 43 311 12 30,www.davidgym.ch,info@davidgymzhwest.ch,,Zürcherstrasse 113,Schlieren,8952
Iron-Gym,,+41 71 672 93 94,www.iron-gym.com,info@iron-gym.com,,Hafenstrasse 50c,Kreuzlingen,8280
Fitness Factory,Pascal Jörg,+41 62 296 13 13,www.fitnessfactory.ch,info@baufactory.ch,,Unterführungsstrasse 49,Olten,4601
Chili Health Hinwil AG,Martin Steiner,+41 55 525 72 62,www.chili-health.ch,hinwil@chili-health.ch,,Gossauerstrasse 14,Hinwil,8340
Fit-Style fitness,,+41 26 677 18 08,www.fit-style.ch,staubin@fit-style.ch,https://admin.fitness-classification.ch//storage/media/484/63bbcb11cc2a0.png,Les Vernettes 10,St-Aubin FR,1566
T'Chip Fit Sàrl Fitline,,+41 26 424 95 24,www.fitline-fribourg.ch,office@fitline-fribourg.ch,,Avenue due Midi 4,Fribourg,1700
ACTIVA Gesundheitszentrum,Danja Lienhard,+41 62 797 14 01,www.activa-gesundheitszentrum.ch,info@activa-gesundheitszentrum.ch,,Bernstrasse 36,Rothrist,4852
active training niederhasli GmbH,Anna Derks,+41 44 850 28 04,www.activetraining.ch,info@activetraining.ch,https://admin.fitness-classification.ch//storage/media/448/632c12bbe68fb.jpeg,Mandachstrasse 56,Niederhasli,8155
Aemme Fit Burgdorf GmbH,Simon Arni,+41 34 423 08 30,www.aemmefit.ch,burgdorf@aemmefit.ch,https://admin.fitness-classification.ch//storage/media/435/62d6c1de72201.png,Kirchbergstrasse 107,Burgdorf,3400
Actifit Fitness women only,Gabriella Bucher,+41 61 281 22 22,www.actifit.ch,info@actifit.ch,https://admin.fitness-classification.ch//storage/media/138/624b1a268e0d6.jpg,Elisabethenstrasse 44,Basel,4051
Therme Zurzach Fitness,,+41 56 265 28 00,www.thermalbad.ch,fitness@thermezurzach.ch,,Badstrasse 25,Bad Zurzach,5330
Airportfitness Belp,Mike Kobi,+41 31 812 11 33,www.airportfitness.ch,mail@airportfitness.ch,https://admin.fitness-classification.ch//storage/media/96/624b12a42eceb.jpg,Hühnerhubelstrasse 64,Belp,3123
Laufsportklinik,Barbara Meses,+41 61 281 11 45,www.laufsportklinik.ch,info@laufsportklinik.ch,,Rümelinbachweg 20a,Basel,4054
well come Fit Holding GmbH,Michael Horsley,+41 43 444 04 04,www.wellcomefit.ch,info@wellcomefit.ch,https://admin.fitness-classification.ch//storage/media/292/624c1f67722ae.jpg,Feldstrasse 72,Bülach,8180
well come FIT SG AG,Jacqueline Würmli,+41 71 245 43 25,www.wellcomefit.ch,info@wellcomefit.ch,,Heiligkreuzstrasse 2,St. Gallen,9008
Medical Fitness Team,Philipp Spreng,+41 61 262 21 21,www.mft-bs.ch,info@mft-bs.ch,,Schützenmattstrasse 9,Basel,4051
AMERICAN FITNESS,,+41 22 342 71 77,www.american-fitness.ch,info@american-fitness.ch,,ch. de la Gravière 6,Carouge GE,1227
bodystation Muri AG,Brigitte Tauss,+41 56 664 08 44,www.bodystation-muri.ch,admin@bodystation-muri.ch,,Luzernerstrasse 93,Muri AG,5630
Charly's Fitness & Gesundheit,,+41 52 242 32 32,www.charlys.ch,fitness@charlys.ch,https://admin.fitness-classification.ch//storage/media/312/624c2209a72dd.jpg,Pflanzschulstrasse 36,Winterthur,8400
Gesundheitszentrum Dy-Fit,Rocco David,+41 61 411 16 05,www.dy-fit.ch,info@dy-fit.ch,https://admin.fitness-classification.ch//storage/media/165/624b1ed7f3357.jpg,Tramstrasse 66,Münchenstein,4142
"Fitness Center Baden, Sportmedizinisches Trainingszentrum",Dino Vock,+41 56 221 13 73,www.fitnesscenterbaden.ch,fitnesscenter@bluewin.ch,https://admin.fitness-classification.ch//storage/media/232/624c18d9853b0.jpg,Mellingerstrasse 2b,Baden,5400
"Fitness La Tour, B. Duperrex",,+41 21 944 31 01,fitnesslatour.ch,info@fitnesslatour.ch,https://admin.fitness-classification.ch//storage/media/30/624714ae70adb.jpg,Grand-Rue 55,La Tour-de-Peilz,1814
Fitness Lodge GmbH,Kuno Schibli,+41 43 422 06 22,www.fitness-lodge.ch,info@fitness-lodge.ch,https://admin.fitness-classification.ch//storage/media/288/624c1ee834e18.png,Ruchwiesenstrasse 5,Dielsdorf,8157
Fitness- & Gesundheitscenter Ambiente,André Moser,+41 31 791 15 31,www.fitness-ambiente.ch,contact@fitness-ambiente.ch,https://admin.fitness-classification.ch//storage/media/420/628533e1de663.jpeg,Haldenweg 3,Konolfingen,3510
fitneXX Traing-Center,Roberto Borghi,+41 62 388 46 46,www.fitnexx.ch,roberto.borghi@fitnexx.ch,https://admin.fitness-classification.ch//storage/media/208/624c15ea80371.png,Gummertliweg 4,Oensingen,4702
L.A.S. Fitness und Sport AG Eurofit,Monica Klingenfuss,+41 52 620 27 27,www.eurofit.ch,Info@eurofit.ch,https://admin.fitness-classification.ch//storage/media/293/624c1fb3948ea.png,Rheinweg 1,Schaffhausen,8200
LYSSPARK Fitness & Health,Rolf Hugi,+41 32 385 12 51,www.lyssparkfitness.ch,info@lyssparkfitness.ch,https://admin.fitness-classification.ch//storage/media/419/628368f6a73dc.jpg,Werkstrasse 65,Lyss,3250
Physio in Fit GmbH,Lena Keller,+41 32 322 22 33,www.physioinfit.ch,info@physioinfit.ch,https://admin.fitness-classification.ch//storage/media/196/624c149272be2.jpg,Allmendweg 8,Zuchwil,4528
Sportiver Input AG,Hanspeter Grossen,+41 33 438 26 66,www.input.ch,info@input.ch,https://admin.fitness-classification.ch//storage/media/132/624b192cb3d25.png,Bernstrasse 130,Steffisburg,3613
ValMoving training center Sagl,Laetitia Grossini,+41 91 796 30 30,www.valmoving.com,info@valmoving.com,https://admin.fitness-classification.ch//storage/media/258/624c1bddcd49c.png,via ValleMaggia 10,Avegno,6670
VO2 Studio,,+41 26 912 11 48,www.vo2studio.ch,info@vo2training.ch,,chemin des Préalpes 16,Bulle,1630
Planet Wellness Village,Matteo Donataccio,+41 91 994 74 84,www.wellnessvillage.ch,info@wellnessvillage.ch,https://admin.fitness-classification.ch//storage/media/269/624c1cf4a9c46.jpg,Via Senago 17a,Pazzallo,6912
Daytona Gesundheitszentrum-Fitness & Praxis mit Charme,Urs Rüegsegger,+41 33 223 05 15,www.daytona-gesundheitszentrum.ch,info@daytona-gesundheitszentrum.ch,https://admin.fitness-classification.ch//storage/media/126/624b18a8a7ba4.jpg,Bernstrasse 2B,Thun,3600
Sportzentrum Heimberg,,+41 33 437 33 86,www.sportzentrum-heimberg.ch,fitness@sportzentrum-heimberg.ch,,Schützenstrasse 70,Heimberg,3627
Physiotherapien Medwell & Klinik Hohmad,,+41 33 335 22 77,www.medwell.ch,info@medwell.ch,https://admin.fitness-classification.ch//storage/media/130/624b18fd1fc5a.JPG,Frutigenstrasse 46c,Thun,3600
Team Training Rehabilitations GmbH,,+41 44 760 06 06,www.tt-hedingen.ch,info@tt-hedingen.ch,,Maienbrunnenstrasse 12,Hedingen,8908
Fabrik11,Sven Riederer,+41 44 830 91 40,www.fabrik11.ch,gruezi@fabrik11.ch,https://admin.fitness-classification.ch//storage/media/334/624c2401d18f2.png,Ringstrasse 20,Dübendorf,8600
PhysioFit GmbH,Jürg Abplanalp,+41 44 734 13 13,www.physiofit.ch,marcus@physiofit.ch,,Schulstrasse 33,Urdorf,8902
FITplus,Monika Kaufmann,+41 41 784 58 19,www.buel-cham.ch,fitplus@buel-cham.ch,,Rigistrasse 3,Cham,6330
arena Fitness - health medical gmbh,Giovanni Arena,+41 56 491 22 20,www.arenafitness.ch,info@arenafitness.ch,https://admin.fitness-classification.ch//storage/media/238/624c1999a90c3.png,Stetterstrasse 25,Mellingen,5507
Aristote Concept Sàrl,,+41 32 422 16 48,www.aristoteconcept.ch,info@aristoteconcept.ch,https://admin.fitness-classification.ch//storage/media/76/62471977decee.png,Rue des moulins 12,Delémont,2800
Athletgym,Michel Brügger,,www.athletgym.ch,info@athletgym.ch,https://admin.fitness-classification.ch//storage/media/475/63aac9bbe21ce.jpg,Fabrikstrasse 21,Biberist,4562
Axis Fitnessclub Muttenz,Remo Steiner,+41 61 461 08 00,www.axis-fit.ch,info@axis-fit.ch,https://admin.fitness-classification.ch//storage/media/155/624b1cb52d4c3.jpg,Herrenmattstrasse 24,Muttenz,4132
Axis Physio & Fitness,Ivona Gisiger,+41 44 500 89 66,www.axis-fitness.ch,info@axis-fitness.ch,https://admin.fitness-classification.ch//storage/media/350/624c25649a821.png,Gotthardstasse 52,Thalwil,8800
Beat bewegt mich GmbH,Yvonne Schleiss,+41 41 671 05 05,www.beat-premiumtraining.ch,info@beat-premiumtraining.ch,,Allmendweg 5,Alpnach Dorf,6055
BIG Fitness Training,Isabel Giss,+41 61 761 33 66,www.big24.ch,bigfitnesslaufen@gmail.com,https://admin.fitness-classification.ch//storage/media/178/624b202371677.jpg,BKW Strasse 14,Laufen,4242
Bodyactive Fitness,,+41 32 355 38 38,www.bodyactive.ch,info@bodyactive.ch,,Hauptstrasse 116,Orpund,2552
BodyBrain Sàrl,,+41 21 922 45 45,www.bodybrain.ch,info@bodybrain.ch,https://admin.fitness-classification.ch//storage/media/26/624714573ee39.png,Rue du Collège 2,Vevey,1800
bodystation Frauenfeld,Jorge Felix Ayes Perez,+41 52 720 77 45,www.bodystation-frauenfeld.ch,info@bodystation-frauenfeld.ch,https://admin.fitness-classification.ch//storage/media/471/63a6ad132fddc.png,Gewerbestrasse 1,Frauenfeld,8500
Bodystation Kreuzlingen AG,Thomas Poosch,+41 71 688 77 11,www.bodystation-kreuzlingen.ch,info@bodystation-kreuzlingen.ch,https://admin.fitness-classification.ch//storage/media/490/63cf86828dd85.png,Romanshornstrasse 1,Kreuzlingen,8280
Bodystation Winterthur,Theodoros Demertzis,+41 52 202 00 20,www.bodystation-winterthur.ch,info@bodystation-winterthur.ch,https://admin.fitness-classification.ch//storage/media/313/624c222593e25.JPG,Lagerhausstrasse 11,Winterthur,8400
CENTRAL-Training & Therapie,,+41 61 713 00 30,www.trainingcentral.ch,info@trainingcentral.ch,https://admin.fitness-classification.ch//storage/media/151/624b1bf9ef9d2.jpg,Baslerstrasse 200,Allschwil,4123
Centre Thérapies & Fitness TheraFit SA,,+41 21 931 40 11,www.thera-fit.ch,secretariat@thera-fit.ch,https://admin.fitness-classification.ch//storage/media/22/624713b119746.png,Rte de la Coula 57,Châtel-St-Denis,1618
Check Point FitnessGmbH,Roger Disch,+41 71 393 73 73,checkpoint-fitness.ch,info@checkpoint-fitness.ch,,Waldau 1a,Flawil,9230
Chili Fitness GmbH,Martin Steiner,+41 55 240 38 34,www.chilifitness.ch,duernten@chilifitness.ch,,Bubikonerstrasse 45a,Dürnten,8635
CSM Centro Sportivo Minusio SA,Gigliola Busschetti,+41 91 743 45 58,csm-minusio.ch,info@csm-minusio.ch,,Via S. Gottardo 51,Minusio,6648
dr. rickli Premium Training AG,Heidi Harms,+41 43 530 30 30,www.rickli-training.ch,info@rickli-training.ch,https://admin.fitness-classification.ch//storage/media/361/624c263c2e4ea.jpg,Ottenbacherstrasse 23,Obfelden,8912
egymtraining.ch,Niki Schönbächler,,www.egymtraining.ch,info@egymtraining.ch,https://admin.fitness-classification.ch//storage/media/473/63a94c505a3fc.png,Gotthardstrasse 22,Arth,6415
Elson Sport und Fitness GmbH,Merita Noja-Kabashi,+41 71 670 10 66,www.elson.ch,elsonkabashi@elson.ch,,Romanshornerstrasse 122,Kreuzlingen,8280
Enggist AG Therapie&Fitness,,+41 81 740 08 40,medicalfitness.ch,info@medicalfitness.ch,,Bahnhofstrasse 43,Buchs SG,9470
ERGONIC Medical Training,Markus Friedlin,+41 61 461 78 89,www.ergonic.ch,welcome@ergonic.ch,,Hauptstrasse 80,Muttenz,4132
Fitness AdeRycke,Damien Ryckebusch,+41 22 959 70 70,www.esbellevue.ch,infofitness@esbellevue.ch,https://admin.fitness-classification.ch//storage/media/16/6247125dc3133.jpg,Chemin des Limites 1a,Bellevue,1293
Esprit Fitness Sàrl,Stéphanie Mundwiler,+41 32 753 34 50,www.espritfitness.ch,info@espritfitness.ch,https://admin.fitness-classification.ch//storage/media/52/624716e334cb4.png,Champs-Montants 14a,Marin,2074
Fit 4 Life AG,Roman Poppe,+41 56 268 6770,www.fit4life.ch,info@fit4life.ch,https://admin.fitness-classification.ch//storage/media/228/624c188e6f245.png,Hardstrasse 10,Siggenthal Station,5301
FITIN Fitnesscenter,Norbert Ebneter,+41 81 756 21 52,www.fitin.ch,kontakt@fitin.ch,https://admin.fitness-classification.ch//storage/media/498/6414232e90b88.png,Werdenstrasse 72,Grabs,9472
Fitness Center Galaxy AG,Mario Winzer,+41 81 322 61 81,www.galaxy-malans.ch,info@galaxy-malans.ch,https://admin.fitness-classification.ch//storage/media/273/624c1d815b96c.png,Karlihofstrasse 7,Malans GR,7208
Fitness Emotion GmbH,Patrick Schenk,+41 56 402 00 10,www.fitness-emotion.com,info@fitness-emotion.com,https://admin.fitness-classification.ch//storage/media/456/6356b78da53eb.jpg,Pfadackerstrasse 7,Spreitenbach,8957
Fitness Energie,Frédy Hirter,+41 21 701 47 00,fitness-energie.ch,info@fitness-energie.ch,https://admin.fitness-classification.ch//storage/media/391/624c28f5ece87.JPG,Bas de Plan 7,Bussigny-Lausanne,1030
fitness energym,,+41 26 400 00 77,www.energym.ch,fitness@energym.ch,,route du pâqui 8,Corminboeuf,1720
Fitnesscenter Mühlematt,Valerio Carusone,+41 61 401 16 61,,kontakt@fitness-muehlematt.ch,,Mühlemattstrasse 22,Oberwil BL,4104
Fitness Vitamine,,+41 27 722 44 00,www.fitness-vitamine.ch,info@fitness-vitamine.ch,https://admin.fitness-classification.ch//storage/media/396/624c295522450.jpg,Rue du Châble-Bét 20,Martigny,1920
Fitness-Huus,Regula Brigger,+41 71 888 66 24,www.fitness-huus.ch,info@fitness-huus.ch,,Hof 141,Lutzenberg,9426
Fitnesstower medical,Marcel Niederer,+41 81 286 36 00,www.fitnesstower.ch,info@fitnesstower.ch,https://admin.fitness-classification.ch//storage/media/466/637886039f6a9.jpg,Spundisstrasse 17,Chur,7000
Fitnesstreff Niklaus AG,Stephan Niklaus,+41 61 711 40 24,www.fitnesstreff.ch,info@fitnesstreff.ch,,Am Bruggrain 1,Reinach,4153
Fitnew'form,,+41 24 441 10 63,www.fitnewform.ch,info@fitnewform.ch,https://admin.fitness-classification.ch//storage/media/21/624712e5884d5.jpg,Chemion de l'Etraz 18,Orbe,1350
Fit-Treff,Fabienne Christinger,+41 71 880 08 81,wwwl.fit-treff-ruderbach.ch,squash.ruderbach@bluewin.ch,,Ruderbach 40,St. Margrethen SG,9430
Fitwork GmbH,Georg Mahler,+41 41 260 45 05,www.fitwork.ch,info@fitwork.ch,,Buchenstrasse 4,Emmenbrücke,6020
Forum Fitness,Sibylle Feigenwinter,+41 61 322 85 85,nysc.ch,forum@nysc.ch,https://admin.fitness-classification.ch//storage/media/507/64799bf405931.jpg,St. Johanns-Vorstadt 41,Basel,4056
Free Time Club,Paride Oggioni,+41 91 973 30 50,www.freetimeclub.ch,info@freetimeclub.ch,,Via delle Scuole 34,Lugano,6900
fritz bewegt mich AG,Ulrike Zauner,+41 52 544 48 80,www.fritzbewegtmich.ch,info@fritzbewegtmich.ch,https://admin.fitness-classification.ch//storage/media/307/624c20ce99efb.jpg,Schmittestrasse 8,Illnau,8308
Country club geneva,Frederic Bouvier,+41 22 959 79 00,www.countryclubgeneva.ch,info@countryclubgeneva.ch,,Route de Collex 47,Bellevue,1293
"Gimnasium Health, Fitness, Beauty & Spa",Paolo Rho,+41 91 820 10 00,www.gimnasium.ch,info@gimnasium.ch,https://admin.fitness-classification.ch//storage/media/254/624c1b6d6ce71.jpg,Via S. Bernardino 24,Castione,6532
Greenfit,,+41 27 565 41 31,www.green-fit.ch,info@green-fit.ch,,Industriestrasse 16,Salgesch,3970
Gym Tonic Sa,Matteo Italica,+41 91 924 96 66,www.gymtonic.ch,gymlugano@gmail.com,,Via Cantonale 3,Lugano,6900
Halle 41 Fitness & Health GmbH,,+41 44 814 19 19,www.halle41.ch,info@halle41.ch,https://admin.fitness-classification.ch//storage/media/302/624c206ddc00c.jpg,Steinackerstrasse 41,Kloten,8302
Harmony Denges,Jean-Etienne Lasnier,+41 21 803 03 33,harmony.ch,denges@harmony.ch,,Ch. de la Crosette 4,Echandens-Denges,1026
Harmony Blandonnet,Julien Bigrat,+41 22 341 42 43,harmony.ch,blandonnet@harmony.ch,,Route de Pré-Bois 6,Vernier,1214
Harmony La Praille,Alice Honvault,+41 22 308 58 58,harmony.ch,praille@harmony.ch,,Route des Jeunes 10,Carouge GE,1227
Harmony Signy,Margaux Fournier,+41 22 363 88 55,harmony.ch,signy@harmony.ch,,En Fléchère,Signy-Centre,1274
Harmony Versoix,Leo Luppi,+41 22 950 40 50,www.harmony.ch,versoix@harmony.ch,https://admin.fitness-classification.ch//storage/media/11/624711691a7e7.jpeg,Ch. de la Scie 2,Versoix,1290
Highlight Training & Therapie,Pia Egger,+41 31 721 82 28,www.fitness-highlight.ch,rezeption@fitness-highlight.ch,https://admin.fitness-classification.ch//storage/media/92/624b121ae8778.png,Erlenauweg 15,Münsingen,3110
Hôtel et Centre Thermal d'Yverdon-les-Bains SA,,+41 24 423 20 32,www.bainsyverdon.ch,forme@bainsyverdon.ch,,Avenue des Bains 22,Yverdon-les-Bains,1400
INDIGO at SIX,,+41 58 399 44 77,,six@indigofitness.ch,,Hardturmstrasse 201,Zürich,8005
INDIGO Fitness Club Basel,Gian Godenzi,+41 61 271 21 00,www.indigofitness.ch/basel,basel@indigofitness.ch,,Aeschengraben 29,Basel,4051
INDIGO Fitness Zürich AG,Lorenz Stäheli,+41 44 212 12 00,www.indigofitness.ch/zuerich,zuerich@indigofitness.ch,,Blaufahnenstrasse 3,Zürich,8001
InForm Fitnessclub AG,,+41 61 821 90 90,,info@inform-fitnessclub.ch,,Rütiweg 9,Pratteln,4133
Evolution-fit,Donatella Palmieri,+41 61 312 77 66,www.evolution-fit.ch,info@evolution-fit.ch,https://admin.fitness-classification.ch//storage/media/486/63bf221b33e4f.png,Gartenstrasse 13,Birsfelden,4127
InsGym,Frank Lachmuth,+41 31 557 24 22,insgym.ch,info@insgym.ch,https://admin.fitness-classification.ch//storage/media/99/624b137b88c9a.png,Rämistrasse 5,Ins,3232
Joggeli Fitness,Nicolas Arrigo,+41 61 312 36 36,wwww.nysc.ch,joggeli@nysc.ch,,Gellertstrasse 235,Basel,4052
Keops Club Fitness SA,,+41 21 624 24 10,www.keops.ch,info@keops.ch,,Chemin du Martinet 28,Lausanne,1007
Connection Wolhusen,Willi Zihlmann,+41 41 49 04 040,www.connection-wolhusen.ch,connection@cws-gruppe.ch,https://admin.fitness-classification.ch//storage/media/485/63bd1db0dcd3e.jpg,Bergboden 7,Wolhusen,6110
Ladies Gym AG Dietikon,Carlo Eichenberger,+41 44 745 30 00,ladiesgym.ch,info@ladiesgym.ch,https://admin.fitness-classification.ch//storage/media/467/637ca752d8f1b.jpg,Ueberlandstrasse 129,Dietikon,8953
Lady L!FE Training,Anne-Kathrin Wilm,+41 61 263 18 18,www.life-swiss-healthclub.ch,info@lady-life-training.ch,https://admin.fitness-classification.ch//storage/media/142/624b1a720f118.jpg,Leonhardsgraben 8,Basel,4051
Ladyfit Lyss GmbH,Gabriele Heukeroth,+41 32 530 26 70,www.ladyfit-lyss.ch,info@ladyfit-lyss.ch,,Hauptstrasse 20,Lyss,3250
Yess Fitness,,+41 27 456 56 95,www.yess-fitness.com,yessfitness@hotmail.com,https://admin.fitness-classification.ch//storage/media/81/624ad220e945b.jpg,Rue de la Monderèche 18,Sierre,3960
Lifestyle Fitness GmbH,Bernat Sacelotti,+41 32 652 71 41,www.lifestyle-fitness.ch,grenchen@lifestyle-fitness.ch,,Bettlachstrasse 8,Grenchen,2540
Luxor Fitness,Lucas Anliker,+41 44 202 38 38,tsag.ch,lsc@tsag.ch,,Glärnischstrasse 35,Zürich,8002
Malcafit SA,Raffaele Pellegrini,+41 91 606 55 53,www.malcafit.ch,info@malcafit.ch,,Via Industria 64,Caslano,6987
Max Fit & Well AG,Roland Brand,+41 62 922 52 52,www.maxfit.ch,kontakt@maxfit.ch,https://admin.fitness-classification.ch//storage/media/210/624c162ba02d2.jpg,Bleienbachstrasse 15,Langenthal,4900
Natural Premium Training AG,,+41 71 630 00 90,www.naturalpremiumtraining.ch,info@naturalpremiumtraining.ch,,Weinfelderstr. 30a,Amriswil,8580
NESSFIT,,+41 32 740 17 17,www.nessfit.ch,contact@nessfit.ch,https://admin.fitness-classification.ch//storage/media/44/6247162dd939d.png,Avenue Edouard-Dubois 20,Neuchâtel,2000
Athletic Fitness Cossonay SA,Joel Bornand,+41 21 861 31 00,www.new-athletic-fitness.ch,contact@new-athletic-fitness.ch,https://admin.fitness-classification.ch//storage/media/17/6247128359a6a.png,Rte de La Sarraz 11,Cossonay-Ville,1304
PHYSICAL CENTER MAVRIC AG,Muamer Mavric,+41 41 670 04 04,www.physicalcenter.ch,mavric@physicalcenter.ch,,Eichistrasse 1,Alpnach Dorf,6055
Therapie & Trainingszentrum Rothenburg,Jurriaan Rombouts,+41 41 281 50 30,www.ttz-rothenburg.ch,physiotherapie@ttz-rothenburg.ch,,Stationsstrasse 8,Rothenburg,6023
Physio Care Center de Leur AG,Jeroen de Leur,+41 55 418 30 40,www.physio-care-center.ch,info@physio-care-center.ch,,Werner-Kälin-Strasse 11,Einsiedeln,8840
Physio Polasek,Ferdinand Polasek,+41 61 421 31 33,www.polasek.ch,physio@polasek.ch,,Haupstrasse 1,Binningen,4102
Physio Training,Andi C. Hedinger,+41 52 681 29 04,www.physiotraining.com,info@physiotraining.com,https://admin.fitness-classification.ch//storage/media/294/624c1fd59a1a0.png,Hofackerstrasse 6,Wilchingen,8217
physio.works GmbH,,+41 55 246 38 39,www.physio-works.ch,physio.works@hin.ch,,Rosenthalstrasse 7b,Wald ZH,8636
physio+training niederer,,+41 55 533 06 50,www.physioniederer.ch,info@physioniederer.ch,https://admin.fitness-classification.ch//storage/media/354/624c259eaa12c.GIF,Churerstrasse 54,Pfäffikon SZ,8808
Physio-Fit PREMIUM TRAINING,Josef Burkardt,+41 44 861 00 25,www.physio-fit.ch,info@physio-fit.ch,https://admin.fitness-classification.ch//storage/media/482/63b7fce1b1d47.jpg,Hammerstrasse 6,Bülach,8180
physiofitryser gmbh,Christina Balzano,+41 62 874 47 74,www.physiofitryser.ch,physiofitryser@datacomm.ch,,Bahnhofstrasse 8,Laufenburg,5080
Fitness- und Gesundheitscenter Physioflex AG,Denise Zumsteg,+41 56 426 20 80,physioflex.ch,info@physioflex.ch,https://admin.fitness-classification.ch//storage/media/489/63c5bc7f2dc0c.jpg,Alberich-Zwyssigstrasse 83,Wettingen,5430
PhysioMed,Christian Locher,+41 56 426 80 60,www.physio-med.ch,info@physio-med.ch,,Landstrasse 115,Wettingen,5430
Physiotherapie und Trainingscenter Pawel Suchcicki,Pawel Suchcicki,+41 56 624 43 93,www.physiodottikon.ch,info@physiodottikon.ch,,Othmarsingerstrasse 3,Dottikon,5605
Plan C Fitness AG,Julia Vitelli,+41 41 340 11 11,www.plan-c-fitness.ch,info@plan-c-fitness.ch,,Industriestrasse 10,Kriens,6010
Power Gym Lichtensteig,Hancer Halil,+41 71 556 96 60,www.power-gym-lichtensteig.com,info@powergymschweiz.ch,,Hofstrasse 4,Lichtensteig,9620
Alix Sport di Paolo Medolago,Paolo Medolago,+41 91 646 38 36,oltreilfitness.com,info@oltreilfitness.com,https://admin.fitness-classification.ch//storage/media/483/63b8342c5e8e3.png,Via Borromini 20,Mendrisio,6850
Rennbahnklinik/Rennbahntraining,,+41 61 465 63 00,www.rennbahntraining.ch,info@rennbahntraining.ch,https://admin.fitness-classification.ch//storage/media/469/6399ce484e1e4.png,Kriegackerstrasse 100,Muttenz,4132
ROPE strength&athletic GmbH,,+41 31 352 06 81,www.ropefitness.ch,info@ropefitness.ch,https://admin.fitness-classification.ch//storage/media/82/624b1055d5a8f.jpg,Thunstrasse 8a,Bern,3005
S Fit Kerzers AG,Christoph Stucki,+41 77 538 33 37,www.s-fit.ch,info@s-fit.ch,https://admin.fitness-classification.ch//storage/media/97/624b12e630e8e.jpg,Industriestrasse 13,Kerzers,3210
SALVEO Fitness-Studio GmbH,Katja Jeger,+41 79 257 83 18,www.salveo-fitness.ch,info@salveo-fitness.ch,https://admin.fitness-classification.ch//storage/media/174/624b1fba8b961.png,Riedstrasse 8,Zwingen,4222
savo.ch Wankdorf AG,Savo Hertig,+41 31 305 88 55,www.savo.ch,wankdorf@savo.ch,https://admin.fitness-classification.ch//storage/media/88/624b11ba0db24.jpg,Wankdorfallee 5,Bern,3014
SportGYM AG,Raffael Rico,+41 62 791 41 30,sportgym.ch,info@sportgym.ch,https://admin.fitness-classification.ch//storage/media/9/6231b8515d5d4.jpg,Wallgrabenweg 13,Aarburg,4663
Sportcenter Aegeri,Dario Häusler,+41 41 750 48 72,www.sportcenteraegeri.ch,info@sportcenteraegeri.ch,,Zugerstrasse 79,Unterägeri,6314
Sport-Fitness-Center Schumacher AG,Roger Langel,+41 44 823 80 80,www.sportcenterschumacher.ch,info@sfcs.ch,https://admin.fitness-classification.ch//storage/media/330/624c23cba19f0.png,Am Stadtrand 46,Dübendorf,8600
Stepbystep fit AG,Susanne Christen,+41 62 822 97 27,www.stepbystep-aarau.ch,info@stepbystep-aarau.ch,,Kasinostrasse 38,Aarau,5000
Süssbach Therapien AG,Susanne Vogel,+41 56 462 64 30,www.suessbach-therapien.ch,physiotherapie@suessbach.ch,https://admin.fitness-classification.ch//storage/media/223/624c17ee55e74.jpg,Fröhlichstrasse 7,Brugg AG,5200
TC Training Center Heerbrugg,Andryn Savary,+41 71 720 10 70,www.tc-training.fit,info@tc-training.fit,,Widnauerstrasse 8,Heerbrugg,9435
THE GYM AG,Reto Maissen,+41 56 560 84 48,www.the-gym.ch,info@the-gym.ch,https://admin.fitness-classification.ch//storage/media/224/624c18273d63f.png,Industriestrasse 33,Birr-Lupfig,5242
Top-Fit Fitness Club AG,Patrick Salzmann,+41 44 953 33 00,top-fit.ch,info@top-fit.ch,,Steinwiesstrasse 44,Pfäffikon ZH,8330
TrainiQ Fitness und Schmerzfrei-Zentrum,Sara Krattinger,+41 34 530 02 11,www.trainiq.ch,info@trainiq.ch,,Spitalstrasse 18,Sumiswald,3454
Trainsane Gym,Jean-Marc Stettler,+41 31 934 12 12,www.trainsane.ch,info@trainsane.ch,,Bernstrasse 5,Ostermundigen,3072
Fitness-Center Hombrechtikon,,+41 55 244 26 96,fitness-hombrechtikon.ch,info@homisport.ch,,Neuhofweg 10,Hombrechtikon,8634
well come FIT Einstein,Jacqueline Würmli,+41 71 552 00 08,www.wellcomefit.ch,einstein@wellcomefit.ch,,Kappellenstrasse 1,St. Gallen,9000
well come Fit GL,Detlev Schneiders,+41 55 552 00 40,www.wellcomefit.ch,info@wellcomefit.ch,,Centro 6,Netstal,8754
ENTERRA SA,,+41 91 911 46 91,www.villasassa.ch,wellness@villasassa.ch,https://admin.fitness-classification.ch//storage/media/265/624c1c63995d2.jpg,c/o THG MANAGEMENT SA,Lugano,6900
Wenger Fitness Center,Marcel Wenger,+41 71 911 06 06,fitness-wil.ch,info@fitness-wil.ch,https://admin.fitness-classification.ch//storage/media/488/63c14f6d225f8.png,Pestalozzistrasse 17,Wil SG,9500
winti FIT AG,Katrin Pinsini,+41 52 233 14 00,www.wintifit.ch,info@wintifit.ch,https://admin.fitness-classification.ch//storage/media/317/624c22531a808.jpg,Im Hölderli 10,Winterthur,8405
winti FIT AG,Rebekka Wetli,+41 52 233 14 12,www.wintifit.ch,info@wintifit.ch,https://admin.fitness-classification.ch//storage/media/318/624c22a679472.jpg,Riedäckerstrasse 5,Pfungen,8422
well come FIT Holding GmbH,Leigh Brülisauer,+41 44 888 11 11,www.wellcomefit.ch,info@wellcomefit.ch,https://admin.fitness-classification.ch//storage/media/306/624c20bd71afb.jpg,Riedwiesenstrasse 3,Dietlikon,8305
Physiotherapie W. Derksen,Wilbert Derksen,+41 71 841 99 92,www.physio-derksen.ch,w.derksen@bluewin.ch,,Reitbahnstrasse 21,Rorschach,9400
Healthy Space by Rehability Lugano,Martino Donati,+41 91 224 85 74,rehabilitylugano.ch,info@rehabilitylugano.ch,,Via al Chioso 8,Lugano,6900
Panthera Lady's Gym GmbH,Urs Zumstein,+41 41 610 70 00,panthera-ladysgym.ch,info@panthera-ladysgym.ch,https://admin.fitness-classification.ch//storage/media/248/624c1ae9caf37.JPG,Mühlebachstrasse 5,Stans,6370
INDIGO Fitness Zürich AG,,+41 44 212 12 00,,cs@indigofitness.ch,https://admin.fitness-classification.ch//storage/media/284/624c1e8366110.jpg,Sihlporte 3,Zürich,8001
Royal Fitness,,+41 55 243 32 76,www.Newshape.fitness.ch,fitnessworld@gmx.ch,,Werkstrasse 43,Rüti ZH,8630
part Praxis für ambulante Rehabilitation und Training GmbH,Reto Eigenmann,+41 71 411 69 39,www.part-amriswil.ch,info@part-amriswil.ch,,Nordstrasse 7,Amriswil,8580
Viso Gym SA,,+41 32 753 15 66,visogym.ch,visogym@bluewin.ch,,Avenue des Pâquiers 20,St-Blaise,2072
Body Power,,+41 79 911 72 72,www.body-power.ch,info@body-power.ch,https://admin.fitness-classification.ch//storage/media/379/624c282d02fdc.jpg,Obere Bahnhofstrasse 19,Wil SG,9500
Halle41 Zürich West AG,Nadja Caracciolo,+41 43 366 88 66,www.fitness41.ch,info@halle41.ch,,Heinrichstrasse 251,Zürich,8005
Central Gym Romont,Milorad Andric,+41 26 565 55 35,www.centralgym.ch,info@centralgym.ch,,Rue des Comtes 5,Romont FR,1680
LivingWell Geneva,,+41 22 747 02 48,www.starling.fitness.fr,Sarah.Nadas@Hilton.com,,Route François-Peyrot 34,Le Grand-Saconnex,1218
L'Usine Sports Club,,+41 22 319 60 30,www.usineopera.ch,info.contact@usineopera.ch,,Rue Bovy-Lysberg 5,Genève,1204
Body & Soul GmbH,Agnieszka Waller,+41 61 983 00 65,www.bosofit.ch,info@bosofit.ch,https://admin.fitness-classification.ch//storage/media/458/6356f97308409.png,Rebgasse 17,Gelterkinden,4460
Chili Health Training Männedorf,Martin Steiner,+41 43 538 58 06,www.chili-health.ch,maennedorf@chili-health.ch,,Alte Landstrasse 258,Männedorf,8708
rehaAKTIV GmbH,,+41 56 210 10 67,www.rehaaktiv.ch,info@rehaaktiv.ch,,Badenerstrasse 52a,Birmenstorf AG,5413
Physiotherapie und MTTZ AG,,+41 56 667 04 40,www.mttz.ch,info@mttz.ch,https://admin.fitness-classification.ch//storage/media/427/629725c644fcc.png,Hauptstrasse 17,Meisterschwanden,5616
KraftOrt GmbH,,+41 61 731 25 25,www.kraftort.fit,mein@kraftort.fit,https://admin.fitness-classification.ch//storage/media/146/624b1b703f5be.jpg,Metzerlenstrasse 1b,Mariastein,4115
Harmony Meyrin,,+41 22 797 29 29,,meyrin@harmony.ch,,Rue des Bergères 3,Meyrin,1217
Athletic Fitness Bern AG,,+41 31 382 00 70,https://www.athletic.ch/bern/,bern@athletic.ch,,Murtenstrasse 143,Bern,3008
Physio Plus AG,Samuel Weishaupt,+41 44 854 64 66,www.physioplus-dielsdorf.ch,info@physioplus-dielsdorf.ch,https://admin.fitness-classification.ch//storage/media/287/624c1ec9c522a.jpg,Breitestrasse 11,Dielsdorf,8157
MaxxFitness,Tanja Marike Schmid,,,training@maxxfitness.ch,https://admin.fitness-classification.ch//storage/media/366/624c2713ce35e.jpg,Bleichelistrasse 22,Bühler,9055
Medlake Training,Andrea Badstuber,+41 44 991 22 02,www.medlake.ch,info@medlake.ch,https://admin.fitness-classification.ch//storage/media/10/6242d3970ea7d.png,Seestrasse 39,Küsnacht ZH,8700
CTS Fitness,Evan Stegmüller,+41 32 329 19 51,www.ctsbiel-bienne.ch,info@ctsbiel-bienne.ch,,Zentralstrasse 60,Biel/Bienne,2502
Sportcenter Leuggern AG,Renato Rigo,+41 56 269 10 41,scl.li,fitness@scl.li,,Härdlestrasse 3,Leuggern,5316
Lifestyle Fitness und Gesundheitscenter,Philippe Wettstein,+41 62 961 90 90,www.lifestyle-fitness.ch,buchsi@lifestyle-fitness.ch,https://admin.fitness-classification.ch//storage/media/111/624b156628595.png,Industrieweg 2,Herzogenbuchsee,3360
Fitness Center Thusis GmbH,,,,info@fitnesscenterthusis.ch,https://admin.fitness-classification.ch//storage/media/476/63b7f9018553f.jpg,Schützenweg 3,Thusis,7430
Kraftwerk City Fit Chur,Fabiana Benderer,+41 81 252 90 52,www.kraftwerkchur.ch,info@kraftwerkchur.ch,,Steinbockstrasse 4,Chur,7000
Airport Fitness und Wellness AG,,+41 43 816 56 77,www.airport-fitness.ch,t.zeqiri@airport-fitness.ch,,Hotelstrasse,Zürich,8060
MTC Pieter Keulen AG,,+41 41 914 22 66,www.mtc.ch,hochdorf@mtc.ch,,Hohenrainstrasse 2,Hochdorf,6280
MTC Pieter Keulen AG,Pieter Keulen,+41 41 260 68 68,www.mtc.ch,info@mtc.ch,,Seetalstrasse 11,Emmenbrücke,6020
Matrix Gym,Kevin Ziswiler,,www.matrixgym.ch,info@matrixgym.ch,,Bahnhofstrasse 7,Reiden,6260
Seuzifit AG,Kurt Meile,+41 52 320 80 20,www.seuzifit.ch,info@seuzifit.ch,https://admin.fitness-classification.ch//storage/media/319/624c22bf2bac8.jpg,Strehlgasse 24,Seuzach,8472
Lillo's Fitness-Träff GmbH,,+41 56 245 45 10,www.lillosfit.ch,info@lillosfit.ch,,Hauptstrasse 7,Döttingen,5312
Dynamo-Sport,Kathrin Gerber,+41 61 831 70 41,www.dynamo-sport.ch,email@dynamo-sport.ch,https://admin.fitness-classification.ch//storage/media/181/624b208f75e62.jpg,Fassbindstrasse 2A,Rheinfelden,4310
Central Gym Brügg,Granit Ramaj,+41565257475,www.centralgym.ch,bruegg@centralgym.ch,,Industriestrasse 25,Brügg BE,2555
Physio und Fitness Alder GmbH,,+41 81 733 43 53,www.physio-alder.ch,info@physio-alder.ch,,Marktstrasse 17,Flums,8890
Merian Santé,Marlies Meier,+41 61 544 06 07,,training@meriansante.ch,,Thannerstrasse 47,Basel,4054
Eureca,Philippe Sigaud,+41223727214,www.hug.ch,eureca@hcuge.ch,,Gabrielle-Perret-Gentil 4,Genève,1205
Fitness Palace,,+41 27 924 33 00,fitness-palace.ch,info@fitness-palace.ch,https://admin.fitness-classification.ch//storage/media/436/62ea42d9de591.jpg,Neue Simplonstrasse 38,Brig,3900
Athletics Center,,+41 21 968 12 24,www.athletics-center.com,contact@athletics-center.com,https://admin.fitness-classification.ch//storage/media/34/6247150fe574d.jpg,Chemin du Pré-des-Fourches 2,Noville,1845
Physiotherapie Würenlingen,Nico Stam,+41 56 281 13 26,www.physio-wuerenlingen.com,physiowuerenlingen@gmail.com,https://admin.fitness-classification.ch//storage/media/449/633318247d407.png,Wiesenstrasse 4,Würenlingen,5303
TC Training Center Oberriet,,+41 079 265 49 93,,info@tcheerbrugg.ch,,Montlingerstrasse 1,Oberriet SG,9463
UNIK Training GmbH,Ravi Sinnathamby,,www.unik-training.com,training@unik-sports.com,,Bolligenstrasse 82,Bern,3006
Rückgrat AG,Urs Baumann,+41 61 721 49 49,www.rueckgrat-physio.ch,info@rueckgrat-physio.ch,,Teichstrasse 15,Therwil,4106
Gymfit trainiere erfolgreich !,,+41 44 761 77 74,gymfit-affoltern.ch,info@gymfit-affoltern.ch,,Lindenmoostrasse 8,Affoltern am Albis,8910
Gesundheits- und Squashcenter Body Boost,Jessica Reichart,+41 52 222 25 27,www.bodyboost.ch,info@bodyboost.ch,,Riedhofstrasse 59,Winterthur,8408
Bodytec Zone GmbH,Stefano Alessio,061 261 10 69,www.myvitalfit.ch,ste.alessio@gmail.com,,Winzerweg 3,Allschwil,4123
LB Fitness Group AG,,+41 61 681 45 25,www.lbfitness.ch,buchhaltung@lb-fitness.ch,,Rebgasse 28,Basel,4058
PALESTRA CAMPUS ESTUSI/SUPSI,Alessio Manfrè,+41 58 666 47 97,www.sport.usi.ch,sport@usi.ch,,Via la Santa 1,Lugano-Viganello,6900
grow fitness,,+41 71 644 70 77,https://growconcept.com/fitness/,info@growfitness.ch,,Bädlistrasse 89,Sulgen,8583
WELL AG,Ramona Volkart,+41 44 867 48 85,www.well.swiss,info@well.swiss,,Dorfstrasse 77,Glattfelden,8192
SanaTrain,Katja Schmid,+41 55 646 39 70,https://ksgl.ch/angebot/sanatrain,sanatrain@ksgl.ch,https://admin.fitness-classification.ch//storage/media/349/624c253b86034.jpg,Burgstrasse 99,Glarus,8750
CBM sport,,027 722 52 00,www.cbm-sport.ch,cbmsport@gmail.com,,Rue Du Châble-bet 22,Martigny,1920
saluto AG,Evelyne Weber,+41418504365,www.saluto.ch,info@saluto.ch,,Chli Ebnet 3,Küssnacht am Rigi,6403
Vitaltraining Citycenter,Roger Langel,+41435431110,www.vitaltraining.ch,hello@vitaltraining.ch,,Adlerstrasse 1,Dübendorf,8600
Wettstein's fit54,Antoinette Wettstein,+41564910203,www.fit54.ch,info@fit54.ch,,Lenzburgerstrasse 50,Mellingen,5507
Physioplus Hergiswil GmbH,Mauro Bove,041 630 42 45,www.physioplus-hergiswil.ch,mb@physioplus-hergiswil.ch,,Zwydenweg 2,Hergiswil NW,6052
Fitness Insel AG,Fabian Möckli,+41 71 577 07 07,www.fitness-island.ch,info@fitness-island.ch,https://admin.fitness-classification.ch//storage/media/387/624c28936b4f6.jpg,Industriestrasse 25,Bronschhofen,9552
13étoiles Fitness SARL,,+41273229922,www.13etoilesfitness.ch,info@13etoilesfitness.ch,https://admin.fitness-classification.ch//storage/media/43/6247161181f62.jpg,Route d'italie 156,Uvrier,1958
ATLANTIDE SA,,+41 91 966 13 13,a-club.ch,contabilita@a-club.ch,,Via Campo Sportivo,Savosa,6942
Fit Concept Spa Barben,,,www.fitconceptspa.ch,info@fitconceptspa.ch,,Av. de la Rochelle 5,Prilly,1008
Physiotherapie Herrliberg GmbH,,+41 43 27 75 288,www.health-physio.ch,info@health-physio.ch,,Dorf 30,Herrliberg,8704
Fitnessbox AG,Michael Rüfenacht,+41 61 781 14 14,www.fitnessbox.ch,info@fitnessbox.ch,,Langhagweg 45,Laufen,4242
Acropolis Therapie Fitness Wellness,Patrick Iten,+41 56 622 91 55,www.acropolis.ch,info@acropolis.ch,https://admin.fitness-classification.ch//storage/media/244/624c1a5047175.jpg,Zentralstrasse 30A,Wohlen AG,5610
PKF FUTUR SNC,,,www.pkfcenter.ch,futur@pkfcenter.ch,,Chemin des Lentillères 5F,Crissier,1023
Kraftakt SportHub,Gina Di Nardo,,www.kraftakt.ch,info@kraftakt.ch,,Bernapark 28,Stettlen,3066
FRITZ bewegt mich,,+41 44 933 30 30,www.fritzbewegtmich.ch,rausch@fritzbewegtmich.ch,https://admin.fitness-classification.ch//storage/media/341/624c2484c9de6.jpg,Uster-West 11,Uster,8610
Bodypower24 Winterhur,,079 420 61 58,www.bodypower24.ch,info@bodypower24.ch,https://admin.fitness-classification.ch//storage/media/407/624d5f0527109.PNG,Steigstrasse 26,Winterthur,8406
MiraBelle Figurstudio für Frauen,,+41 55 212 10 11,www.mirabellefit.ch,anna.garcia@sunrise.ch,,Molkereistrasse 3,Jona,8645
OPEN RIDE,,+41 44 291 93 40,www.openride.ch,hey@openride.ch,,Europaallee 13,Zürich,8004
"attica Private Gym, Health & Spa",Katarina Djordjevic,+41527280414,www.attica-gym.ch,info@attica-gym.ch,,Maurerstrasse 6,Frauenfeld,8500
Mind Revolution GmbH,Levent Liechti,,www.raion-dojo.ch,info@raion-dojo.ch,https://admin.fitness-classification.ch//storage/media/470/63a552b273a34.png,Schenkstrasse 13,Wangen an der Aare,3380
Aristote Concept Porrentruy,,+41 32 554 23 22,www.aristoteconcept.ch,porrentruy@aristoteconcept.ch,https://admin.fitness-classification.ch//storage/media/428/629764266da27.png,Route d'Alle 1b,Porrentruy,2900
TONWERK VITAL AG,,+410615255123,www.tonwerk-vital.ch,info@tonwerk-vital.ch,,Bahnhofstrasse 8,Lausen,4415
Il Centro Giubiasco,Yari Bellini,+41912210210,www.ilcentro.ch,info@ilcentro.ch,https://admin.fitness-classification.ch//storage/media/495/63e3bc0a8fc70.jpg,Via Del tiglio 2,Giubiasco,6512
Gesundheitszentrum Gut,,+41 44 768 30 15,gut-training.ch,info@gut-tut-gut.ch,https://admin.fitness-classification.ch//storage/media/365/624c2683e650c.jpg,Erspachstrasse 5,Mettmenstetten,8932
Pilates Biel GmbH,Carole und Andrea Bilat,+41 79 244 30 33,pilates-biel.ch,info@pilates-biel.ch,,Oberer Quai 51,Biel/Bienne,2502
fitnessplus Schweiz AG,Tara Lacher,+41 44 832 80 00,www.fitnessplus.ch,info@fitnessplus.ch,,Hammerweg 1,Wallisellen,8304
Pitsch Fitness Wellness Center,Vincenzo Pugliese,+41 44 710 50 00,www.pitsch-fitness.ch,info@pitsch-fitness.ch,,Talstrasse 10,Adliswil,8134
GMS-Fitness,,,,info@gms-personalcoaching.ch,,Seestrasse 72e,Richterswil,8805
ONE MORE GmbH,Aaron Müller,+41 43 499 80 10,www.onemoretraining.ch,info@onemoretraining.ch,https://admin.fitness-classification.ch//storage/media/432/62bbefc20500b.jpg,Wehntalerstrasse 5,Schleinikon,8165
EveryBody's Fitness Studio,Oliver Schaub,,www.fitbo.ch,fitbo@bluewin.ch,,Baslerstrasse 43,Bottmingen,4103
INFINITI Fitness,Joel Giger,+41 62 535 53 16,infiniti-fitness.ch,info@infiniti-fitness.ch,https://admin.fitness-classification.ch//storage/media/221/624c179ba8fb2.jpg,Blumenauweg 1,Frick,5070
fitness-365,,+41 62 288 35 21,www.fitness-365.ch,fitness-365@bluewin.ch,,Industriestrasse 17,Lostorf,4654
T-Gym,Bea Odermatt,+41 41 360 01 22,www.tribschentraining.ch,office@tribschentraining.ch,,Grimselweg 5,Luzern,6005
80'20 AG,Ornella Poltéra,+41 81 868 83 92,www.80zwanzig.ch,info@80zwanzig.ch,,Triststrasse 8,Chur,7000
Fitnesscenter Body Fit,Paolo Amato,+41 52 343 66 77,body-fit.ch,info@body-fit.ch,,Lindauerstrasse 15,Tagelswangen,8317
GYM medico GmbH,,+41 61 2617614,www.gymmedico.ch,praxis@gymmedico.ch,https://admin.fitness-classification.ch//storage/media/143/624b1a9fc28a9.jpg,Hebelstrasse 56,Basel,4056
WOW! Fitness,,+41 52 301 27 37,www.wow-training.ch,sport@wow-training.ch,,Gewerbestrasse 11,Kleinandelfingen,8451
Equilibre Fitness,,+41216171244,www.equilibre-fitness.ch,contact@equilibre-fitness.ch,,Avenue de Montschoisi 15,Lausanne,1006
one-cycling gmbH,,+41523453484,www.one-cycling.ch,info@one-cycling.ch,,Bankstrasse 8/12,Winterthur,8400
SWISS TRAINING,Manuela Sinani,+41 62 834 33 44,swiss-training.ch,info@swiss-training.net,https://admin.fitness-classification.ch//storage/media/214/624c16c5de8f8.jpg,Rohrerstrasse 100,Aarau,5000
Fitpool Premium Training,Maggie Weber,+41 71 988 75 15,www.fitpool.ch,info@fitpool.ch,https://admin.fitness-classification.ch//storage/media/462/635a4eb941f35.jpg,Ebnaterstrasse 70,Wattwil,9630
hi5sports,Patricia und Beni Blusch,,www.hi5sports.ch,mail@hi5sports.ch,https://admin.fitness-classification.ch//storage/media/375/624c27e484b6e.jpg,Industriestrasse 1,Sevelen,9475
GRAF tut gut,Mauro Bissig,+41413600522,www.graftutgut.ch,info@graftutgut.ch,https://admin.fitness-classification.ch//storage/media/426/6291cc787f1bd.png,Brünigstrasse 20,Luzern,6005
Fitness-Center Wädenswil,,+41 44 780 32 79,waedi-fit.ch,info@waedi-fit.ch,,Speerstrasse 95,Wädenswil,8820
fitnessplus Basel,,+41 61 338 90 20,fitnessplus.ch,info@fitnessplus.ch,,Dornacherstrasse 210,Basel,4053
fitnessplus Wetzikon,,+41 43 497 08 40,fitnessplus.ch,info@fitnessplus.ch,,Hofstrasse 106,Wetzikon ZH,8620
Fitorama AG Fitness Center,,+41 61 272 66 23,fitorama.ch,info@fitorama.ch,,Lange Gasse 90,Basel,4052
Swiss Training Regensdorf,,+41 44 840 56 30,swiss-training.ch,swisstraining@swissonline.ch,,Pumpwerkstrasse 23,Regensdorf,8105
fitnessplus Arbon,,+41 71 447 89 89,www.fitnessplus.ch,info@fitnessplus.ch,,St. Gallerstrasse 11,Arbon,9320
fitnessplus Herisau,,+41 71 351 64 66,fintessplus.ch,info@fitnessplus.ch,,Industriestrasse 28,Herisau,9100
TC Training Center Lachen,,+41 55 442 50 33,tc-schwyz.ch,lachen@tc-schwyz.ch,,Feldmoosstrasse 49,Lachen SZ,8853
fitnessplus Zürich,,+41 44 302 40 50,fitnessplus.ch,info@fitnessplus.ch,,Thurgauerstrasse 40,Zürich,8050
Fitnesscenter Goodfit,,+41 56 496 88 08,goodfit.ch,info@goodfit.ch,,Mellingerstrasse 12,Niederrohrdorf,5443
Grand Hotel Victoria-Jungfrau & Spa,,+41 33 828 27 10,victoria-jungfrau.ch,info@victoria-jungfrau.ch,,Höhenweg 41,Interlaken,3800
GYM FIT CLUB BERN,Ruben Kaser,+41 31 340 03 50,www.gymfit.ch,info@gymfit.ch,,Randweg 9,Bern,3013
Holmes Place Zürich,,+41 44 215 24 20,holmesplace.ch,zuerich@holmesplace.ch,,Steinmühleplatz 1,Zürich,8021
Holmes Place AG,,+41 44 722 53 20,,seepark@holmesplace.ch,,Seestrasse 97,Oberrieden,8942
Meditop Training GmbH,,+41 62 777 07 57,meditop.ch,info@meditop.ch,,Schulstrasse 9,Seengen,5707
Now! Training + Therapie AG,,+41 44 905 99 99,now-uster.ch,info@now-uster.ch,,Oberlandstrasse 104,Uster,8610
Physical-Fitness,,+41 62 752 20 52,physical.ch,fitness@physical.ch,,Untere Grabenstrasse 42,Zofingen,4800
Log3 St-Légier,,+41 21 943 55 77,,info@log3.ch,,Rte Industrielle 2,St-Légier-Chiésaz,1806
Gi Fitness,Samuele Drakopulos,+41 62 849 00 10,www.gi-fitness.ch,info@gi-fitness.ch,,Schachenstrasse 4,Niedergösgen,5013
Green Club S.A.,Oliver Diserens,+41 21 648 34 54,green-club.ch,info@green-club.ch,,Chemin des Epinettes 1,Romanel-s-Lausanne,1032
Holmes Place,,+41 22 818 47 70,holmesplace.ch,seepark@holmesplace.ch,,Rue de Rôhne 50,Genève,1204
Holmes Place,,+41 21 310 47 70,holmesplace.ch,seepark@holmesplace.ch,,Rue de la Mercerie 12,Lausanne,1003
Athletik Club 90 S.A.,,+41 91 857 65 57,athletikclub90.ch,info@athletikclub90.ch,,Via Pobbia 6,Sementina,6514
Benefit Centro Di Allemaneto,,+41 91 862 45 55,,benefisio@bluewin.ch,,Via Tognola 6,Biasca,6710
California Parco Acquatico,,+41 91 695 70 00,california-acquapark.ch,info@california-acquapark.ch,,Via San Gottardo 4,Balerna,6828
CBR - Centro Balneare Regionale SA,,+41 91 759 90 00,lidolocarno.ch,info@lidolocarno.ch,,Via Respini 11,Locarno,6601
LOG3 SA Fitness-Spa,,+41 21 922 82 60,log3.ch,info@log3.ch,,Rue du Panorama 12,Vevey,1800
Swiss Gym Fitnessstudio,,+41 31 305 90 19,swiss-gym.com,info@swiss-gym.com,,Kirchlindachstrasse 8,Zollikofen,3052
Holmes Place Crowne Plaza,,+41 44 404 85 00,www.holmesplace.ch,info@holmesplace.com,,Badenerstrasse 420,Zürich,8004
Time Out,Iwan Kälin,+41 41 530 33 33,timeout-training.ch,info@timeout-training.ch,https://admin.fitness-classification.ch//storage/media/249/624c1b0a0a566.jpg,Bodenstrasse 20,Küssnacht am Rigi,6403
Happy Gym,,+41 41 378 09 90,happygym.ch,info@happygym.ch,,Huobmattstrasse 7,Meggen,6045
Le Five.Club Sàrl,,,www.fiveclub.ch,emilie@fiveclub.ch,,Route de Porrentruy 74,Delémont,2800
Claudia's Figurstudio GmbH,,+41 32 675 75 88,www.ladyform-biberist.ch,welcome@ladyform-biberist.ch,,Hauptstrasse 19,Biberist,4562
Ardisla Fitness & Physio,,+41 81 633 18 01,www.ardislafitness.ch,bisculmphysiotherapie@bluewin.ch,,Via Burgaisa 8,Domat/Ems,7013
Move It Fitness Gstaad GmbH,,+41 79 356 14 77,www.sportzentrum-gstaad.ch,move-it@sportzentrum-gstaad.ch,,Sportzentrumstrasse 5,Gstaad,3780
Espace Equilibre Centre Wellness Femmes Sàrl,Bastien Neuhaus,+41 32 913 22 88,www.espaceequilibre.ch,info@espaceequilibre.ch,https://admin.fitness-classification.ch//storage/media/497/63ef9c59f0a0a.png,Av. Léopold-Robert 19,La Chaux-de-Fonds,2300
Pacific Fitness sarl,,+41 32 493 60 88,www.pacific-fitness.ch,pacificfitness@bluewin.ch,,Rue du Cagreu 103,Perrefitte,2742
Fitforme,,+41 21 948 02 49,,fitforme@bluewin.ch,,Grand-Rue 10,Châtel-St-Denis,1618
Sport Quest SA,Sébastien Grossini,+41 22 320 65 65,www.sportquest.ch,desk@sportquest.ch,https://admin.fitness-classification.ch//storage/media/509/6495776a8c7f4.png,Av. Henri Dunant 13,Genève,1205
Wellness Fitness Wellness Center,,+41 33 971 22 00,www.fitnesswellness.ch,janine.locher@fitnesswellness.ch,,Schulhausgasse 1,Meiringen,3860
Xplode Fitness  & Shop Sàrl,Pirali Erminio,+41 24 472 11 72,www.xplode-fitness.ch,info@xplode-fitness.ch,https://admin.fitness-classification.ch//storage/media/500/64216162bb8bf.png,Avenue du Simplon 100 F,Monthey,1870
Move-Fitness GmbH,,,www.mymove-fitness.ch,neumann@mymove-fitness.ch,,Sägereistrasse 10,Glattbrugg,8152
Atomix Fitness,,+41 44 240 10 40,www.atomixburn.com,rick@atomixburn.com,,Freischützgasse 10,Zürich,8004
Lionel Tosalli TosalGym,,+41 32 968 57 60,www.tosalgym.ch,info@tosalgym.ch,,Alexis-Marie-Piaget 73,La Chaux-de-Fonds,2300
MICHAELA FIT,,,www.michaelafit.ch,michaela@michaelafit.ch,https://admin.fitness-classification.ch//storage/media/109/624b152b555f4.jpg,Rötiweg 8B,Herzogenbuchsee,3360
Splash & SPA Tamaro SA,,+41 91 936 22 22,www.splashespa.ch,info@splashespa.ch,,via Campagnole 1,Rivera,6802
coos gym,,+41 26 411 08 61,www.coosgym.ch,laurent.coos@gmail.com,,coos gymZ:l. d'in Riaux 8,Farvagny-le-Grand,1726
FitPlus Vouillamoz Sarl,,+41 27 746 46 77,www.fitplus-fully.ch,fitplus@netplus.ch,https://admin.fitness-classification.ch//storage/media/39/624715c5a75cb.png,Route de la Gare 10,Fully,1926
Silvergym NL Sarl,,+41 27 565 13 69,www.silver-gym.ch,info@silver-gym.ch,,Rue de la poste 23,Fully,1926
N&A Fitness Coaching,,+41 27 327 65 70,www.n-a-fitness-coaching.ch,n.a.fitness.coaching@gmail.com,,Rue du Scex 16B,Sion,1950
"Sihlpark Fitness & Wellness, Free Time AG",,+41 44 787 51 00,www.sihlpark-wellness.ch,karin.winzeler@sihlpark-wellness.ch,,Chaltenbodenstrasse 16,Schindellegi,8834
Number1 Complex GmbH,,,www.number1complex.ch,info@number1complex.ch,,Solothurnstrasse 1,Biel/Bienne,2504
Movimento Physio- und Trainingstherapie GmbH,Melina Dürr,+41 61 963 00 23,www.physiomovimento.ch,info@physiomovimento.ch,,Ueli Schadweg 3,Oberdorf BL,4436
New Craft,,+41 43 422 55 00,www.newcraft.ch,info@newcraft.ch,,Bauelenzelgstrasse 8,Hüntwangen,8194
Factory Fitness Einsiedeln GmbH,,+41 55 412 61 00,www.factory-fitness.ch,info@factory-fitness.ch,,Zürichstrasse 38,Einsiedeln,8840
Le Lab eaux-Vives SA,,+41 76 360 54 25,www.lelab.fit,info@lelab.fit,,Rue de la Mairie 3,Genève,1207
PhysioArt&Fitness Bucheggberg gmbH,,+41 32 661 07 50,www.physio-art.ch,info@physio-art.ch,https://admin.fitness-classification.ch//storage/media/200/624c14ece8c5d.jpg,Hauptstrasse 4,Hessigkofen,4577
saphiraz gmbh,,+41 44 925 11 33,www.saphiraz.com,info@saphiraz.com,,General-Wille-Strasse 133,Meilen,8706
Oasis Spa Sarl. Wellness et Fitness,,+41244415262,www.oasis-wellness.ch,fitness@oasis-wellness.ch,,Rue de l'Industrie 5,Chavornay,1373
Fitness Gisler GmbH,,+41 41 870 15 05,www.gisler-fitness.ch,info@fitnessgisler.ch,,Umfahrungsstrasse 2,Schattdorf,6467
JAM 29 Aerobic Factory,,,www.jam29.ch,silvia@jam29.ch,https://admin.fitness-classification.ch//storage/media/373/624c27a794bff.jpg,Moosweg 11,Buchs SG,9470
URBANRIDE,,+41223475886,www.urbanride.ch,marc@urbanride.ch,,Rue Sautter 15,Genève,1205
jalo-fit,,,www.jalo-fit.ch,info@jalo-fit.ch,https://admin.fitness-classification.ch//storage/media/372/624c2782ee754.jpg,Bitziweg 6,Montlingen,9462
FITNESS MARECHAL SNC,Chantal Nicolet / Myriam Maréchal,,www.fitness-marechal.ch,fitnessmarechal@gmail.com,,Rue de Champréveyres 3,Neuchâtel,2000
Il Centro Locarno,,+41912210204,www.ilcentro.ch,info@ilcentro.ch,,Via Lavizzari 10a,Locarno,6600
Il Centro Lugano,Marco Alfano,+41912210207,www.ilcentro.ch,info@ilcentro.ch,,Via Petrini 2,Lugano,6900
TCI Gesundheitszentrum Ruswil KIG,Michael Baumeler,+41414950404,www.gesundheitszentrum-ruswil.ch,info@tci-ruswil.ch,,Grindel 37,Ruswil,6017
Physiotherapie Ryser AG,Dominic Ryser,+41439352820,www.physio-ryser.ch,info@physio-ryser.ch,https://admin.fitness-classification.ch//storage/media/465/6374c56b52fb4.png,Industriestrasse 1,Grüningen,8627
Talos-gym,,+419804444,www.talos-gym.ch,diego.baldelli@talos-gym.ch,https://admin.fitness-classification.ch//storage/media/429/62b1a0702f496.jpg,Neuhofstrasse 21d,Baar,6340
ALESSANDRO SPORT PHYSIOTHERAPIE,,,www.alessandro-sport-physiotherapie-luzern.business.site,alessandro.sport.physio@gmail.com,,Obergrundstrasse 28,Luzern,6003
Center de Santé La Lignière SA,Réception,+41229996465,cds.la-ligniere.ch,cds@la-ligniere.ch,https://admin.fitness-classification.ch//storage/media/441/62fcfb1905402.png,La Lignière 5,Gland,1196
ELITE FITNESS,,,www.fitness-elite.ch,info@fitness-elite.ch,,Route de Larret 28,Monthey,1870
KOKON Fitness & Spa,,004232642060,www.kokon-fitness.li,office@kokon-fitness.li,,Industriering 3 3,Ruggell,9491
DIE INSEL Training,Valerie Frei,+41612727595,www.insel-training.ch,info@insel-training.ch,https://admin.fitness-classification.ch//storage/media/450/6340267089198.png,Steinenring 45,Basel,4051
Fixyoulab Sagl,Elena Tacchini,+41917511173,,fisioterapia@fixyoulab.ch,,Via Varesi 7a,Locarno,6600
MedAction Physiotherapie,Eleonora Preite,+41445278848,www.medaction.ch,pfaeffikon@medaction.ch,,Sennhofweg 23,Zollikerberg,8125
CorpoSana,Miguel Pelaez,+41613387070,www.corposana.ch,info@corposana.ch,https://admin.fitness-classification.ch//storage/media/472/63a93ef11455f.jpg,Münchensteinerstrasse 220,Basel,4053
well come Invest GmbH,,+41527213692,www.wellcomefit.ch,info@wellcomefit.ch,,Tösstalstrasse 100,Rikon im Tösstal,8486
bleibgesund GmbH,Bruno Röthlisberger,+41333564227,www.bleibgesund.ch,admin@bleibgesund.ch,,Postgässli 24,Uetendorf,3661
Therapiezentrum Gleis 1 AG,Daniela Rota,+41565558885,www.tz-gleis1.ch,office@tz-gleis1.ch,,Grosszelgstrasse 18,Würenlos,5436
Move Center,Pierre-Luc Taris,,www.movecenter.ch,info@movecenter.ch,https://admin.fitness-classification.ch//storage/media/508/647dbdb1155b3.png,Route du Simplon 67,Ardon,1957
es physiotherapie,Egle Sausys,+41580582060,www.esphysiotherapie.ch,info@esphysiotherapie.ch,,Dorfstrasse 81,Geroldswil,8954
Physio Bornemann GmbH,Sylvia Bornemann,+41715588818,www.physio-bornemann.ch,info@physio-bornemann.ch,,St. Jakob-Strasse 89,St. Gallen,9000
Move Concept Sàrl,,,www.franckcoach.ch,info@moveconcept.ch,,Rue de Granges 5b,Biel/Bienne,2504
Franckcoach,Franckcoach,,www.franckcoach.ch,info@franckcoach.ch,,De granges 5b,Biel/Bienne,2504
Provital Physiotherpie & Gravitytraining,,+41449862010,www.provital.ch,info@provital.ch,,Büelstrasse 29,Egg b. Zürich,8132
Energy Zone Sàrl,Mathieu Schaffner,,www.energy-zone.ch,info@energy-zone.ch,,Route de Delémont 40,Courrendlin,2830
Eulachfit GmbH,Lisa Hugentobler,,,info@eulachfit.ch,,St. Gallerstrasse 18,Elgg,8353
Central Gym Burgdorf,,,www.cetralgym.ch,burgdorf@centralgym.ch,,Lyssacherstrasse 111,Burgdorf,3400
Fusion Sports Academy AG,Tim Schlapbach,+41313316746,www.fusionsports.ch,gym@fusionsports.ch,,Freiburgstrasse 251,Bern,3018
physio5 / fitness5 GmbH,Manuela Treuthardt,+41313050505,www.physio5.ch,info@physio5.ch,https://admin.fitness-classification.ch//storage/media/492/63d394c576bfe.jpg,Könizstrasse 60,Bern,3008
Schulthess Training,,+41443857550,www.schulthess-klinik.ch,schulthess-training@kws.ch,,Lengghalde 2,Zürich,8008
Olympia Fitness,Quentin Voutaz,,www.olympiafitness.ch,info@olympiafitness.ch,,Rue des parties 37,Sembrancher,1933
Sport Rock Fitness Willisau,,+419700865,www.sportrock.ch,fitness@sportrock.ch,,Wydenmatt 8,Willisau,6130
Il Centro di Mendrisio,Marco Maria Manfredi,+41912210220,www.ilcentro.ch,contatti@ilcentro.ch,,Via San Martino 16,Mendrisio,6850
Physiofit Surselva GmbH,,091 936 06 60,www.physiofit-surselva.ch,physiofit@kns.ch,,Via Centrala 4,Ilanz,7130
TC Training Center Bad Ragaz,Andryn Savary,+41813028643,www.tc-training.fit,info@tc-training.fit,,Elestastrasse 1,Bad Ragaz,7310
Physiothérapie Simon Helfer SA,,+41266524952,www.helferphysio.ch,info@helferphysio.ch,,Rte de l'Hôpital 1,Billens,1681
Vital Lounge GmbH,,+41627451800,www.vital-lounge.ch,mail@vital-lounge.ch,https://admin.fitness-classification.ch//storage/media/501/6436714556e0c.png,Tulpenweg 8,Rothrist,4852
self-fitness.ch AG,,+41334371060,www.self-fitness.ch,info@self-fitness.ch,,Im Schoren 4,Gwatt (Thun),3645
Central Gym Münchenbuchsee,Granit Ramaj,,www.centralgym.ch,muenchenbuchsee@centralgym.ch,,Talstrasse 9,Münchenbuchsee,3053
physio fontijne & meditrain GmbH,Mark Fontijne,+41418554022,www.physiofontijne.ch,info@physiofontijne.ch,,Parkstrasse 5a,Goldau,6410
SELFGYM GmbH,Argent Kastrati,,www.selfgym.ch,argent.kastrati@gmail.com,https://admin.fitness-classification.ch//storage/media/510/64999165449a1.png,Gewerbestrasse 12,Zuchwil,4528
QuantumGym Altendorf,,,quantum-gym.ch,altendorf@quantum-gym.ch,,Zürcherstrasse 102,Altendorf,8852
QuantumGym Ziegelbrücke,,,quantum-gym.ch,ziegelbruecke@quantum-gym.ch,,Turbinenweg 2,Ziegelbrücke,8866
Physiotherapie Leuenfeld,Brenda Peregrina,+41623962573,www.physio-leuenfeld.ch,physio@leuenfeld.ch,,Solothurnstrasse 37a,Oensingen,4702
ActiFree - Fitness and More,,,www.actifree.ch,accounts@actifree.ch,,Schaffhauserstrasse 31,Stein AG,4332
Power Fitness Ortega,,,,poverfitnessortega@gmail.com,,Petits Champs 11D,Yverdon-les-Bains,1400
STATERA Personal Training AG,,+41612710014,www.statera.swiss,info@statera.swiss,,Aeschengraben 20,Basel,4051
